ONEWEB-0053             
1 45157U 20008AC  23265.90208510  .00000617  00000+0  17322-2 0  9995
2 45157  87.8847 234.5288 0001911  86.6530 273.4816 13.10377941177178
ONEWEB-0054             
1 45158U 20008AD  23265.86144780 -.00000469  00000+0 -13808-2 0  9991
2 45158  87.8843 234.5238 0001936  83.0089 277.1258 13.10368999177283
ONEWEB-0056             
1 45159U 20008AE  23265.91832495  .00000434  00000+0  12056-2 0  9999
2 45159  87.8841 234.5074 0001896  86.0222 274.1122 13.10376384177449
ONEWEB-0057             
1 45160U 20008AF  23265.92483158  .00000102  00000+0  25529-3 0  9992
2 45160  87.8844 234.4992 0002167  87.9550 272.1825 13.10374990177616
ONEWEB-0058             
1 45161U 20008AG  23265.91183273  .00000694  00000+0  19521-2 0  9997
2 45161  87.8851 234.5469 0001992  82.6609 277.4745 13.10377941177682
ONEWEB-0059             
1 45162U 20008AH  23265.90857812  .00000700  00000+0  19698-2 0  9997
2 45162  87.8847 234.5207 0002088  80.5442 279.5922 13.10378652177586
ONEWEB-0062             
1 45163U 20008AJ  23265.85983511 -.00000444  00000+0 -13069-2 0  9991
2 45163  87.8843 234.5178 0001825  82.9614 277.1721 13.10368757177446
ONEWEB-0065             
1 45164U 20008AK  23265.91346361  .00000615  00000+0  17258-2 0  9997
2 45164  87.8849 234.5019 0001900  86.8428 273.2916 13.10373411177140
